[{"OBJECT_NAME":"STARLINK-33942","OBJECT_ID":"2025-099Y","EPOCH":"2026-03-09T07:02:19.357440","MEAN_MOTION":15.27573374,"ECCENTRICITY":0.00013542,"INCLINATION":42.998,"RA_OF_ASC_NODE":175.162,"ARG_OF_PERICENTER":257.243,"MEAN_ANOMALY":102.827,"EPHEMERIS_TYPE":0,"CLASSIFICATION_TYPE":"U","NORAD_CAT_ID":63974,"ELEMENT_SET_NO":999,"REV_AT_EPOCH":4731,"BSTAR":0.0010712085,"MEAN_MOTION_DOT":0.00029327,"MEAN_MOTION_DDOT":0},{"OBJECT_NAME":"BANDWAGON-4 OBJECT P","OBJECT_ID":"2025-248P","EPOCH":"2026-03-08T23:32:23.805312","MEAN_MOTION":15.24098352,"ECCENTRICITY":0.00120788,"INCLINATION":45.4037,"RA_OF_ASC_NODE":295.4322,"ARG_OF_PERICENTER":209.3167,"MEAN_ANOMALY":150.7044,"EPHEMERIS_TYPE":0,"CLASSIFICATION_TYPE":"U","NORAD_CAT_ID":66306,"ELEMENT_SET_NO":999,"REV_AT_EPOCH":1929,"BSTAR":0.00092291021,"MEAN_MOTION_DOT":0.00022647,"MEAN_MOTION_DDOT":0}]
